ONEWEB-0668             
1 56711U 23068B   24309.18823635  .00000201  00000+0  49322-3 0  9998
2 56711  87.9101 346.3043 0001144  91.0915 269.0347 13.16593400 74842
ONEWEB-0676             
1 56712U 23068C   24309.16846028  .00000187  00000+0  45639-3 0  9998
2 56712  87.9109 346.3246 0002280 104.3614 255.7770 13.16595846 74761
ONEWEB-0677             
1 56713U 23068D   24309.26860610  .00000185  00000+0  42325-3 0  9990
2 56713  87.9286  31.8121 0001726 110.7702 249.3616 13.20771460 72634
ONEWEB-0678             
1 56714U 23068E   24309.25935675 -.00000069  00000+0 -21768-3 0  9995
2 56714  87.9119  16.5976 0001789  95.1286 265.0048 13.15551614 72422
ONEWEB-0679             
1 56715U 23068F   24309.13757193 -.00000852  00000+0 -22629-2 0  9996
2 56715  87.9108 346.3306 0001720 115.2004 244.9306 13.16585976 74782
ONEWEB-0681             
1 56717U 23068H   24309.20541077  .00000092  00000+0  19202-3 0  9996
2 56717  87.9334   1.5146 0002453 120.8953 239.2423 13.21825606 73842
ONEWEB-0682             
1 56718U 23068J   24309.20940684  .00000148  00000+0  35906-3 0  9995
2 56718  87.9115  16.6445 0001272 111.1293 248.9974 13.15546399 72587
